[{"OBJECT_NAME":"TIANQI-15","OBJECT_ID":"2021-065B","EPOCH":"2026-03-09T19:28:45.472224","MEAN_MOTION":15.09508085,"ECCENTRICITY":0.00070671,"INCLINATION":34.9979,"RA_OF_ASC_NODE":108.242,"ARG_OF_PERICENTER":250.7766,"MEAN_ANOMALY":109.218,"EPHEMERIS_TYPE":0,"CLASSIFICATION_TYPE":"U","NORAD_CAT_ID":49027,"ELEMENT_SET_NO":999,"REV_AT_EPOCH":25424,"BSTAR":0.00041179088,"MEAN_MOTION_DOT":6.722e-5,"MEAN_MOTION_DDOT":0},{"OBJECT_NAME":"STARLINK-4674","OBJECT_ID":"2022-104D","EPOCH":"2026-03-09T21:30:48.556512","MEAN_MOTION":15.08838266,"ECCENTRICITY":0.00010522,"INCLINATION":53.2169,"RA_OF_ASC_NODE":243.3646,"ARG_OF_PERICENTER":96.2369,"MEAN_ANOMALY":263.8743,"EPHEMERIS_TYPE":0,"CLASSIFICATION_TYPE":"U","NORAD_CAT_ID":53591,"ELEMENT_SET_NO":999,"REV_AT_EPOCH":19599,"BSTAR":-4.6152599e-5,"MEAN_MOTION_DOT":-1.022e-5,"MEAN_MOTION_DDOT":0}]
